NORAD_CAT_ID,OBJECT_NAME,OBJECT_TYPE,EPOCH,MEAN_MOTION,ECCENTRICITY,INCLINATION,RA_OF_ASC_NODE,ARG_OF_PERICENTER,MEAN_ANOMALY,BSTAR,MEAN_MOTION_DOT,MEAN_MOTION_DDOT,TLE_LINE0,TLE_LINE1,TLE_LINE2,SEMIMAJOR_AXIS,PERIOD,APOGEE,PERIGEE,DECAYED
54797.0,STARLINK-5435,PAYLOAD,2023-10-08 17:25:09,15.08848632,0.0001322,53.2172,47.7406,82.864,277.2503,0.00016857,2.397e-05,0.0,0 STARLINK-5435,1 54797U 22175AR  23281.72580272  .00002397  00000-0  16857-3 0  9999,2 54797  53.2172  47.7406 0001322  82.8640 277.2503 15.08848632 44467,6917.854,95.437,540.634,538.804,0.0
54797.0,STARLINK-5435,PAYLOAD,2023-10-09 01:22:05,15.08835831,0.0001711,53.2169,46.2551,88.0732,272.0456,-1.995e-05,-6.06e-06,0.0,0 STARLINK-5435,1 54797U 22175AR  23282.05701045 -.00000606  00000-0 -19950-4 0  9990,2 54797  53.2169  46.2551 0001711  88.0732 272.0456 15.08835831 44513,6917.893,95.438,540.942,538.574,0.0
54797.0,STARLINK-5435,PAYLOAD,2023-10-09 14:05:10,15.0884135,0.0001653,53.2177,43.8761,91.1224,268.9957,-2.8023e-05,-7.34e-06,0.0,0 STARLINK-5435,1 54797U 22175AR  23282.58692830 -.00000734  00000-0 -28023-4 0  9992,2 54797  53.2177  43.8761 0001653  91.1224 268.9957 15.08841350 46755,6917.876,95.437,540.885,538.598,0.0
54797.0,STARLINK-5435,PAYLOAD,2023-10-09 15:40:33,15.08847332,0.0001534,53.2177,43.5786,79.3911,280.7254,6.7427e-05,7.85e-06,0.0,0 STARLINK-5435,1 54797U 22175AR  23282.65316543  .00000785  00000-0  67427-4 0  9999,2 54797  53.2177  43.5786 0001534  79.3911 280.7254 15.08847332 44608,6917.858,95.437,540.784,538.662,0.0
54797.0,STARLINK-5435,PAYLOAD,2023-10-10 07:34:25,15.0883993,0.0001738,53.2182,40.6053,78.7704,281.3483,0.00016534,2.344e-05,0.0,0 STARLINK-5435,1 54797U 22175AR  23283.31556996  .00002344  00000-0  16534-3 0  9996,2 54797  53.2182  40.6053 0001738  78.7704 281.3483 15.08839930 44705,6917.881,95.438,540.948,538.543,0.0
54797.0,STARLINK-5435,PAYLOAD,2023-10-10 13:55:57,15.08847947,0.0001471,53.2181,39.4184,59.9892,300.1246,0.00020004,2.898e-05,0.0,0 STARLINK-5435,1 54797U 22175AR  23283.58052466  .00002898  00000-0  20004-3 0  9999,2 54797  53.2181  39.4184 0001471  59.9892 300.1246 15.08847947 46906,6917.856,95.437,540.739,538.703,0.0
54797.0,STARLINK-5435,PAYLOAD,2023-10-10 15:31:20,15.0885376,0.0001711,53.2182,39.1193,86.1901,273.9286,0.0002686,3.991e-05,0.0,0 STARLINK-5435,1 54797U 22175AR  23283.64676140  .00003991  00000-0  26860-3 0  9998,2 54797  53.2182  39.1193 0001711  86.1901 273.9286 15.08853760 44756,6917.838,95.437,540.887,538.52,0.0
54797.0,STARLINK-5435,PAYLOAD,2023-10-11 13:46:45,15.08836391,0.0001763,53.2186,34.9557,82.3848,277.7344,-1.8455e-05,-5.82e-06,0.0,0 STARLINK-5435,1 54797U 22175AR  23284.57413340 -.00000582  00000-0 -18455-4 0  9999,2 54797  53.2186  34.9557 0001763  82.3848 277.7344 15.08836391 47056,6917.891,95.438,540.976,538.537,0.0
54797.0,STARLINK-5435,PAYLOAD,2023-10-12 13:37:31,15.08852499,0.0001715,53.2186,30.4948,85.8944,274.2244,0.00015383,2.162e-05,0.0,0 STARLINK-5435,1 54797U 22175AR  23285.56772728  .00002162  00000-0  15383-3 0  9997,2 54797  53.2186  30.4948 0001715  85.8944 274.2244 15.08852499 47208,6917.842,95.437,540.894,538.521,0.0
54797.0,STARLINK-5435,PAYLOAD,2023-10-13 13:28:19,15.08844701,0.0001538,53.2177,26.0351,86.3229,273.7939,0.00024478,3.61e-05,0.0,0 STARLINK-5435,1 54797U 22175AR  23286.56133401  .00003610  00000-0  24478-3 0  9991,2 54797  53.2177  26.0351 0001538  86.3229 273.7939 15.08844701 45190,6917.866,95.437,540.795,538.667,0.0
54797.0,STARLINK-5435,PAYLOAD,2023-10-14 13:19:05,15.08857434,0.0001325,53.2176,21.5758,81.8259,278.2884,0.00037706,5.721e-05,0.0,0 STARLINK-5435,1 54797U 22175AR  23287.55492570  .00005721  00000-0  37706-3 0  9999,2 54797  53.2176  21.5758 0001325  81.8259 278.2884 15.08857434 47500,6917.827,95.436,540.609,538.775,0.0
54797.0,STARLINK-5435,PAYLOAD,2023-10-14 22:51:25,15.0883839,0.0001704,53.2186,19.791,85.4677,274.6509,-1.3708e-05,-5.06e-06,0.0,0 STARLINK-5435,1 54797U 22175AR  23287.95237331 -.00000506  00000-0 -13708-4 0  9990,2 54797  53.2186  19.7910 0001704  85.4677 274.6509 15.08838390 45406,6917.885,95.438,540.929,538.572,0.0
54797.0,STARLINK-5435,PAYLOAD,2023-10-15 13:09:53,15.08829725,0.0001313,53.2176,17.1155,99.4065,260.7076,-9.7692e-05,-1.842e-05,0.0,0 STARLINK-5435,1 54797U 22175AR  23288.54853909 -.00001842  00000-0 -97692-4 0  9999,2 54797  53.2176  17.1155 0001313  99.4065 260.7076 15.08829725 45496,6917.912,95.438,540.685,538.868,0.0
54797.0,STARLINK-5435,PAYLOAD,2023-10-16 11:25:17,15.08849991,0.000126,53.2173,12.953,103.8155,256.2977,0.00097392,0.0001525,0.0,0 STARLINK-5435,1 54797U 22175AR  23289.47590184  .00015250  00000-0  97392-3 0  9997,2 54797  53.2173  12.9530 0001260 103.8155 256.2977 15.08849991 45637,6917.85,95.437,540.586,538.843,0.0
54797.0,STARLINK-5435,PAYLOAD,2023-10-16 14:36:04,15.08862796,0.000127,53.2173,12.3587,99.5437,260.5698,0.0014917,0.00023547,0.0,0 STARLINK-5435,1 54797U 22175AR  23289.60837999  .00023547  00000-0  14917-2 0  9999,2 54797  53.2173  12.3587 0001270  99.5437 260.5698 15.08862796 47816,6917.811,95.436,540.554,538.797,0.0
54797.0,STARLINK-5435,PAYLOAD,2023-10-17 09:40:41,15.08847532,0.0001288,53.2166,8.7904,83.6792,276.4347,0.00079302,0.00012358,0.0,0 STARLINK-5435,1 54797U 22175AR  23290.40326133  .00012358  00000-0  79302-3 0  9990,2 54797  53.2166   8.7904 0001288  83.6792 276.4347 15.08847532 45778,6917.857,95.437,540.613,538.831,0.0
54797.0,STARLINK-5435,PAYLOAD,2023-10-17 11:16:04,15.08853938,0.0001485,53.2168,8.4925,99.5644,260.5516,0.00060159,9.303e-05,0.0,0 STARLINK-5435,1 54797U 22175AR  23290.46949926  .00009303  00000-0  60159-3 0  9993,2 54797  53.2168   8.4925 0001485  99.5644 260.5516 15.08853938 47941,6917.838,95.437,540.73,538.675,0.0
54797.0,STARLINK-5435,PAYLOAD,2023-10-17 22:23:46,15.08848948,0.0001686,53.2166,6.412,78.4249,281.6933,0.00059156,9.141e-05,0.0,0 STARLINK-5435,1 54797U 22175AR  23290.93318139  .00009141  00000-0  59156-3 0  9996,2 54797  53.2166   6.4120 0001686  78.4249 281.6933 15.08848948 48015,6917.853,95.437,540.884,538.552,0.0
54797.0,STARLINK-5435,PAYLOAD,2023-10-18 11:06:52,15.0884077,0.0001589,53.2159,4.0327,79.4536,280.6635,0.0001395,1.933e-05,0.0,0 STARLINK-5435,1 54797U 22175AR  23291.46310239  .00001933  00000-0  13950-3 0  9991,2 54797  53.2159   4.0327 0001589  79.4536 280.6635 15.08840770 45933,6917.878,95.438,540.842,538.644,0.0
54797.0,STARLINK-5435,PAYLOAD,2023-10-18 14:17:37,15.08852764,0.0001567,53.2165,3.4365,87.1261,272.9911,0.00027534,4.098e-05,0.0,0 STARLINK-5435,1 54797U 22175AR  23291.59557804  .00004098  00000-0  27534-3 0  9994,2 54797  53.2165   3.4365 0001567  87.1261 272.9911 15.08852764 45951,6917.841,95.437,540.79,538.622,0.0
54797.0,STARLINK-5435,PAYLOAD,2023-10-19 10:57:38,15.08852913,0.0001882,53.2182,359.5709,98.3324,261.7882,0.00041876,6.385e-05,0.0,0 STARLINK-5435,1 54797U 22175AR  23292.45669644  .00006385  00000-0  41876-3 0  9992,2 54797  53.2182 359.5709 0001882  98.3324 261.7882 15.08852913 46085,6917.841,95.437,541.008,538.404,0.0
54797.0,STARLINK-5435,PAYLOAD,2023-10-19 22:05:20,15.08852454,0.0002118,53.2174,357.4921,73.0213,287.1011,0.00030726,4.607e-05,0.0,0 STARLINK-5435,1 54797U 22175AR  23292.92037712  .00004607  00000-0  30726-3 0  9996,2 54797  53.2174 357.4921 0002118  73.0213 287.1011 15.08852454 48313,6917.842,95.437,541.173,538.242,0.0
54797.0,STARLINK-5435,PAYLOAD,2023-10-20 10:48:25,15.08839691,0.0002056,53.2187,355.1051,122.8405,237.2785,-3.3191e-05,-8.16e-06,0.0,0 STARLINK-5435,1 54797U 22175AR  23293.45029850 -.00000816  00000-0 -33191-4 0  9999,2 54797  53.2187 355.1051 0002056 122.8405 237.2785 15.08839691 46234,6917.881,95.438,541.169,538.324,0.0
54797.0,STARLINK-5435,PAYLOAD,2023-10-21 10:39:12,15.08846584,0.0001605,53.2182,350.6514,103.7304,256.3867,4.4056e-05,4.13e-06,0.0,0 STARLINK-5435,1 54797U 22175AR  23294.44389968  .00000413  00000-0  44056-4 0  9991,2 54797  53.2182 350.6514 0001605 103.7304 256.3867 15.08846584 48546,6917.86,95.437,540.836,538.615,0.0
54797.0,STARLINK-5435,PAYLOAD,2023-10-22 10:30:00,15.08837632,0.0001557,53.2183,346.1936,94.511,265.606,0.0002,2.896e-05,0.0,0 STARLINK-5435,1 54797U 22175AR  23295.43750714  .00002896  00000-0  20000-3 0  9991,2 54797  53.2183 346.1936 0001557  94.5110 265.6060 15.08837632 46532,6917.888,95.438,540.83,538.676,0.0
54797.0,STARLINK-5435,PAYLOAD,2023-10-22 20:02:19,15.08835011,0.0001379,53.2173,344.4051,89.1113,271.0037,9.1604e-05,1.17e-05,0.0,0 STARLINK-5435,1 54797U 22175AR  23295.83494822  .00001170  00000-0  91604-4 0  9993,2 54797  53.2173 344.4051 0001379  89.1113 271.0037 15.08835011 48755,6917.896,95.438,540.715,538.807,0.0
54797.0,STARLINK-5435,PAYLOAD,2023-10-23 10:20:47,15.08836797,0.0001393,53.218,341.7305,91.9815,268.1336,5.2322e-05,5.45e-06,0.0,0 STARLINK-5435,1 54797U 22175AR  23296.43110883  .00000545  00000-0  52322-4 0  9991,2 54797  53.2180 341.7305 0001393  91.9815 268.1336 15.08836797 46682,6917.89,95.438,540.719,538.792,0.0
54797.0,STARLINK-5435,PAYLOAD,2023-10-23 19:53:06,15.08840818,0.000144,53.2184,339.9461,93.8382,266.2775,4.5694e-05,4.39e-06,0.0,0 STARLINK-5435,1 54797U 22175AR  23296.82854920  .00000439  00000-0  45694-4 0  9997,2 54797  53.2184 339.9461 0001440  93.8382 266.2775 15.08840818 48903,6917.878,95.438,540.739,538.747,0.0
54797.0,STARLINK-5435,PAYLOAD,2023-10-24 10:11:35,15.08837646,0.0001478,53.219,337.2706,86.9856,273.1305,8.8795e-05,1.125e-05,0.0,0 STARLINK-5435,1 54797U 22175AR  23297.42471344  .00001125  00000-0  88795-4 0  9991,2 54797  53.2190 337.2706 0001478  86.9856 273.1305 15.08837646 48993,6917.888,95.438,540.775,538.73,0.0
54797.0,STARLINK-5435,PAYLOAD,2023-10-25 10:02:23,15.08825646,0.0001687,53.2186,332.8092,82.6452,277.4732,-3.9708e-05,-9.2e-06,0.0,0 STARLINK-5435,1 54797U 22175AR  23298.41832580 -.00000920  00000-0 -39708-4 0  9998,2 54797  53.2186 332.8092 0001687  82.6452 277.4732 15.08825646 46989,6917.924,95.438,540.956,538.622,0.0
